ONEWEB-0461             
1 51649U 22012AD  25328.65704595  .00000083  00000+0  18115-3 0  9992
2 51649  87.9135  46.5150 0001675  99.0773 261.0548 13.17647477186957
ONEWEB-0463             
1 51650U 22012AE  25328.71441160  .00000001  00000+0 -31553-4 0  9990
2 51650  87.9112  46.5503 0001795 103.8349 256.2983 13.17646302186744
ONEWEB-0464             
1 51651U 22012AF  25328.70024693  .00000004  00000+0 -23487-4 0  9998
2 51651  87.8802  77.0502 0002033 103.8135 256.3218 13.10368724182545
ONEWEB-0468             
1 51652U 22012AG  25328.70687770 -.00000243  00000+0 -73312-3 0  9997
2 51652  87.8806  77.0420 0001942 108.1065 252.0274 13.10369272182529
ONEWEB-0473             
1 51653U 22012AH  25328.69195831  .00000455  00000+0  12671-2 0  9991
2 51653  87.8803  77.0483 0001777 108.2794 251.8527 13.10369532182529
ONEWEB-0474             
1 51654U 22012AJ  25328.68366403  .00000716  00000+0  20160-2 0  9998
2 51654  87.8809  77.0154 0002042 106.8402 253.2950 13.10371945182513
ONEWEB-0475             
1 51655U 22012AK  25328.65028628 -.00000140  00000+0 -39417-3 0  9999
2 51655  87.9119  46.5506 0002492 114.5229 245.6162 13.17652396186752
ONEWEB-0490             
1 54113U 22138A   25328.58086406 -.00000013  00000+0 -64424-4 0  9996
2 54113  87.9215 345.6677 0002038  90.8678 269.2688 13.19723588149841
